[Satellite]
VERSION=1.1
NAME=MOLNIYA 1-87
NICKNAME=MOLNIYA 1-87
TLE1=1 22949U 93079A   15054.64526128 -.00000894  00000-0  13804-2 0  9993
TLE2=2 22949  61.6395 102.0763 7426518 272.9466 128.3675  2.00512660155203
